[{"OBJECT_NAME":"STARLINK-31355","OBJECT_ID":"2024-031P","EPOCH":"2026-03-09T21:32:59.228736","MEAN_MOTION":15.30190107,"ECCENTRICITY":9.283e-5,"INCLINATION":53.1601,"RA_OF_ASC_NODE":295.8236,"ARG_OF_PERICENTER":66.2828,"MEAN_ANOMALY":293.827,"EPHEMERIS_TYPE":0,"CLASSIFICATION_TYPE":"U","NORAD_CAT_ID":58978,"ELEMENT_SET_NO":999,"REV_AT_EPOCH":11654,"BSTAR":7.9934082e-5,"MEAN_MOTION_DOT":2.008e-5,"MEAN_MOTION_DDOT":0},{"OBJECT_NAME":"SCS-01 D","OBJECT_ID":"2025-100D","EPOCH":"2026-03-09T18:08:45.040704","MEAN_MOTION":15.31902149,"ECCENTRICITY":0.00063457,"INCLINATION":97.373,"RA_OF_ASC_NODE":145.4097,"ARG_OF_PERICENTER":266.2302,"MEAN_ANOMALY":93.8214,"EPHEMERIS_TYPE":0,"CLASSIFICATION_TYPE":"U","NORAD_CAT_ID":63985,"ELEMENT_SET_NO":999,"REV_AT_EPOCH":4562,"BSTAR":0.0010528181,"MEAN_MOTION_DOT":0.00032471,"MEAN_MOTION_DDOT":0}]
